stk.v.11.0
    
    # WrittenBy    STK_v11.4.0
    
    BEGIN Ephemeris
        NumberOfEphemerisPoints		 8834
        ScenarioEpoch		 2021-04-01 00:00:00
        InterpolationMethod		 Lagrange
        InterpolationSamplesM1		 7
        CentralBody		 Earth
        CoordinateSystem		 Custom TopoCentric Facility/Launch
    
        EphemerisTimePosVel	
3449.5193910070734 16813.97568849946 537.1462237193945 20706.914202171065 7.0789584401202035 -0.3917346532264034 5.870112134359966
3450.0414246998807 16817.671179984776 536.9417193583257 20709.983002973433 7.079098615257976 -0.39175637011302095 5.862553009205571
3450.458507334614 16820.623772204548 536.778320975483 20712.433142480655 7.079209274141883 -0.39177363913792446 5.868863800374434
3450.875589969347 16823.576410334506 536.6149154051024 20714.88364937674 7.079318767466761 -0.39179083596264147 5.872372223034094
3451.363757412447 16827.032334264557 536.4236509798797 20717.75259974518 7.0794454662155815 -0.3918108726000611 5.870757546580427
3451.9013712318065 16830.83837909117 536.213002133722 20720.913207861293 7.079583214086509 -0.3918328258757818 5.861364950134861
3452.3094846667536 16833.727673237692 536.0530865062991 20723.31043272724 7.079686554767713 -0.39184941261743317 5.869165168220529
3452.717598101701 16836.617009346006 535.8931641233379 20725.70818555834 7.0797888545882435 -0.3918659321234937 5.872990378154054
3453.2117180536293 16840.11530459771 535.6995304244517 20728.61213248336 7.079911342630829 -0.3918858435797476 5.871246510075859
3453.7094646563983 16843.639336814398 535.5044656057262 20731.537583559584 7.080033237753422 -0.39190580286217214 5.868164660007657
3454.2072112591673 16847.163429336924 535.309390876743 20734.463338166526 7.08015366251335 -0.3919256641934562 5.8629943700172005
3454.6699085466016 16850.439422877484 535.1280436806558 20737.18249944808 7.080264311913579 -0.39194403975168196 5.862501397547424
3455.0943575188207 16853.444655136216 534.9616798715412 20739.67604408055 7.080364735098187 -0.39196082291658807 5.868004318589658
3455.523482216348 16856.483036111047 534.7934761739386 20742.197382676164 7.080465230923832 -0.39197772002482273 5.871073334913389
3455.9985544302695 16859.846794589306 534.6072540247771 20744.98935802849 7.080575257695844 -0.39199633752660784 5.868119375005691
3456.4877907085142 16863.310896330066 534.4154705240419 20747.864614930222 7.080687273226037 -0.3920154193667386 5.864658812411183
3456.958051216003 16866.640688998592 534.2311168581373 20750.62811846196 7.080793733060842 -0.39203367552255114 5.8631202351542155
3457.397272169727 16869.750743617045 534.0589237225416 20753.208554676563 7.080892111388332 -0.39205065144197515 5.866439642333375
3457.83116097207 16872.823084319818 533.8888137096482 20755.757680501298 7.080988310834317 -0.3920673503847677 5.869476011086745
3458.29407045371 16876.100964499463 533.70731790695 20758.477753578758 7.081089882303919 -0.39208508905678124 5.869447202790242
3458.7887843543244 16879.604104701655 533.5133432918482 20761.385196545125 7.081197239382544 -0.3921039589857064 5.865950317823814
3459.2764140998383 16883.05713266808 533.322137221112 20764.251141045646 7.081301872854928 -0.3921224708571899 5.861652181440075
3459.7234469374534 16886.222728386987 533.1468418213503 20766.87762037761 7.081396777275757 -0.3921393654517229 5.864055027549587
3460.1459370404486 16889.21456723195 532.9811634592653 20769.35950775323 7.081485590027136 -0.39215526603619927 5.8689972445817356
3460.5902078261634 16892.3606849767 532.8069366296897 20771.96984056336 7.081578071226582 -0.39217191710497656 5.870530876980211
3461.0816501418326 16895.84089702272 532.6142022453239 20774.857917957306 7.081679301497237 -0.3921902539914923 5.868019170793309
3461.588653062002 16899.431355338278 532.4153558646045 20777.837999738334 7.08178257767058 -0.39220908166875373 5.861487599895884
3462.0063147786777 16902.389162418927 532.2515419193786 20780.29130627606 7.081866784466395 -0.3922245235800165 5.867999805479014
3462.4239764953536 16905.34700450734 532.0877215374281 20782.744987099126 7.08195021638207 -0.3922399043993963 5.871647497606205
3462.9076793731506 16908.772587386313 531.8979896738964 20785.587421186196 7.082045886292035 -0.39225764138236724 5.870297948917577
3463.440809958823 16912.548270508287 531.688859937232 20788.72128713624 7.082150164249765 -0.39227709714132736 5.861835071713662
3463.8547186032347 16915.47965028982 531.5264899415924 20791.152502585668 7.082230291409643 -0.39229213478892394 5.868593098427123
3464.2686272476462 16918.411063088133 531.3641137338483 20793.58413733054 7.082309702409451 -0.39230711398922563 5.8721747536194595
3464.7608335976997 16921.89704395144 531.1710133126419 20796.47659327106 7.082403216352221 -0.3923248511474178 5.8704205232130615
3465.3064173570115 16925.76111614058 530.9569619036763 20799.68392106067 7.082505722863579 -0.3923444164812527 5.859871443635787
3465.708748115333 16928.61064111354 530.7991067856584 20802.046806401187 7.082580552620399 -0.3923587807961028 5.868784573821908
3466.1110788736546 16931.460196064312 530.6412458992683 20804.410345105793 7.082654744952388 -0.3923730913078383 5.872810599035537
3466.6084040269416 16934.982601049327 530.4461045078058 20807.332878292418 7.0827455859829955 -0.39239070676892585 5.871052100858446
3467.110609933697 16938.539620551863 530.2490391276394 20810.284314341654 7.082836358044787 -0.3924084127276931 5.867729397855991
3467.6128158404526 16942.09668540147 530.0519648761027 20813.236120692814 7.082926180036956 -0.3924260364782503 5.861842584492436
3468.0756497354614 16945.374922708852 529.8703330605097 20815.95586336242 7.083008131688537 -0.39244220625872067 5.8612969278497875
3468.49605918668 16948.352701797845 529.7053435711026 20818.425350875466 7.083081892571277 -0.39245683415543886 5.867574409107142
3468.9218569986338 16951.368678359166 529.5382331658674 20820.92689134503 7.083155948950645 -0.39247159193285397 5.870871824529462
3469.398730877408 16954.74647003572 529.3510697880671 20823.729156772864 7.083238122767796 -0.39248805156051597 5.869833150464071
3469.915617051721 16958.407720717187 529.1481935471686 20826.76728434812 7.083326290672541 -0.39250581114783956 5.863450526119494
3470.3415520627864 16961.424772726386 528.9810084748575 20829.269435269383 7.083398250505264 -0.3925203827756043 5.8682709217196845
3470.767487073852 16964.4418552538 528.8138172080363 20831.77181797034 7.0834695918834525 -0.39253489784747375 5.871294637385377
3471.252877729469 16967.880124785443 528.6232804358311 20834.62420692496 7.0835501478492695 -0.39255137052741057 5.869685137643908
3471.777174009057 16971.594026393974 528.4174625659847 20837.70607526812 7.083636283205115 -0.3925690820678373 5.861869956285301
3472.1931149603524 16974.540414906234 528.2541740969298 20840.14926518569 7.083703978106134 -0.3925830733930042 5.86840069689795
3472.609055911648 16977.486831459333 528.0908798192568 20842.59284512554 7.083771115221893 -0.3925970121299734 5.8719643330464315
3473.09825302008 16980.952210974257 527.8988185004997 20845.467661446313 7.08384935488005 -0.39261333527420167 5.868863332015405
3473.618541055832 16984.637874509626 527.6945419803242 20848.52578849281 7.083931741632073 -0.39263061664692894 5.861165450255905
3474.033666673006 16987.578609583597 527.5315481015517 20850.964011877444 7.083996875666865 -0.3926443471600972 5.867961975862505
3474.44879229018 16990.519371586994 527.3685485335016 20853.402647461728 7.084061483780961 -0.3926580266034878 5.871624827898847
3474.9369867963514 16993.977789898177 527.1768511282646 20856.27133773696 7.0841367996424225 -0.39267404889289514 5.8700742558772605
3475.477571229635 16997.807386332744 526.964572872795 20859.44897532257 7.084219371773894 -0.3926917091992514 5.860490949979124
3475.8852900925976 17000.69576879678 526.804462350097 20861.843525714718 7.084281082773561 -0.3927049727073552 5.868378959627173
3476.2930089555603 17003.584176323355 526.644346429422 20864.23861605237 7.084342313004899 -0.3927181881599124 5.872209113994219
3476.788380469395 17007.09357599625 526.4498010620837 20867.14950561616 7.084416067848532 -0.39273418042399844 5.870437647772826
3477.286757279489 17010.624303022836 526.254067459454 20870.07824275731 7.08448957227797 -0.39275019898074437 5.8673483800618005
3477.7851340895827 17014.15506650995 526.058325891128 20873.00728657853 7.0845623865687495 -0.3927661470623835 5.862149597239064
3478.248392053918 17017.437062017932 525.8763704238647 20875.729359617584 7.084629459464795 -0.39278090854486275 5.861614561575124
3478.67307202133 17020.44577519099 525.7095613764285 20878.223900721332 7.084690436819092 -0.3927943879292504 5.867145493947295
3479.102224304727 17023.48619940364 525.5409898542514 20880.745036640546 7.084751566807041 -0.39280795822672454 5.870243126862371
3479.5774850725643 17026.85331984897 525.3543000829047 20883.537653238913 7.084818697492657 -0.3928229270062445 5.86928552816135
3480.089013565648 17030.477424821667 525.1533558570769 20886.544039216846 7.0848902936559215 -0.39283896860438233 5.863543720175718
3480.518760696605 17033.522148928245 524.9845315516408 20889.068521700035 7.084949923350307 -0.3928523902034378 5.867814684091026
3480.948507827562 17036.56689855958 524.8157014891113 20891.59318915088 7.085009084243627 -0.39286576158561365 5.87063655560748
3481.4317262289082 17039.99052128492 524.6258579031044 20894.432641349395 7.085075053149755 -0.39288073707339544 5.869106758424606
3481.9495629326966 17043.659451363124 524.4224056969545 20897.47626285853 7.085145106679371 -0.39289671579077873 5.86214081660121
3482.3701194629907 17046.63916728293 524.2571676980504 20899.946534840976 7.085201517958809 -0.3929096400814122 5.867932478139099
3482.790675993285 17049.618906836946 524.091924273632 20902.4171232597 7.0852575024167805 -0.3929225174264599 5.8712982375258
3483.2773396460834 17053.06705979293 523.9006995516667 20905.276822099673 7.085321760653441 -0.3929373606971967 5.869729945394755
